#dV2018 10  4  0  0  0.00000000    8640 U+u   IGS14 FIT TUD 
## 2021 345600.00000000    10.00000000 58395 0.0000000000000
+    1   L47  0  0  0  0  0  0  0  0  0  0  0  0  0  0  0  0                          
+          0  0  0  0  0  0  0  0  0  0  0  0  0  0  0  0  0                          
+          0  0  0  0  0  0  0  0  0  0  0  0  0  0  0  0  0                          
+          0  0  0  0  0  0  0  0  0  0  0  0  0  0  0  0  0                          
+          0  0  0  0  0  0  0  0  0  0  0  0  0  0  0  0  0                          
++         0  0  0  0  0  0  0  0  0  0  0  0  0  0  0  0  0                          
++         0  0  0  0  0  0  0  0  0  0  0  0  0  0  0  0  0                          
++         0  0  0  0  0  0  0  0  0  0  0  0  0  0  0  0  0                          
++         0  0  0  0  0  0  0  0  0  0  0  0  0  0  0  0  0                          
++         0  0  0  0  0  0  0  0  0  0  0  0  0  0  0  0  0                          
%c M  cc GPS ccc cccc cccc cccc cccc ccccc ccccc ccccc ccccc                          
%c cc cc ccc ccc cccc cccc cccc cccc ccccc ccccc ccccc ccccc                          
%f  0.0000000  0.000000000  0.00000000000  0.000000000000000                          
%f  0.0000000  0.000000000  0.00000000000  0.000000000000000                          
%i    0    0    0    0      0      0      0      0         0                          
%i    0    0    0    0      0      0      0      0         0                          
/* Created by: RDOD_AR_WGT                                                            
/* Setup     : SWARMA.18.277_RDOD_AR.inp                                              
/* Executed  : 02-Jun-2021 23:03 UTC, by swarmgen@euclid2.lr.tudelft.nl               
/*                                                                                    
*  2018 10 04 00 22 00.00000000                             
PL47 -6275.1345589  2392.4923601  1163.9897369 999999.999999
VL47-11829.8494592  5917.5678599-75271.5143425 999999.999999
*  2018 10 04 00 22 10.00000000                             
PL47 -6286.5661330  2398.2681060  1088.6462409 999999.999999
VL47-11033.1316002  5633.6109028-75413.8898126 999999.999999
*  2018 10 04 00 22 20.00000000                             
PL47 -6297.2005052  2403.7589612  1013.1651356 999999.999999
VL47-10235.4630859  5347.7918941-75546.7301720 999999.999999
*  2018 10 04 00 22 30.00000000                             
PL47 -6307.0367770  2408.9630807   937.5559645 999999.999999
VL47 -9436.9480436  5060.1454099-75670.0188318 999999.999999
*  2018 10 04 00 22 40.00000000                             
PL47 -6316.0741538  2413.8786548   861.8282870 999999.999999
VL47 -8637.6903576  4770.7072807-75783.7404301 999999.999999
*  2018 10 04 00 22 50.00000000                             
PL47 -6324.3119450  2418.5039097   785.9916774 999999.999999
VL47 -7837.7943718  4479.5127446-75887.8808506 999999.999999
*  2018 10 04 00 23 00.00000000                             
PL47 -6331.7495645  2422.8371068   710.0557233 999999.999999
VL47 -7037.3642939  4186.5979550-75982.4272473 999999.999999
*  2018 10 04 00 23 10.00000000                             
PL47 -6338.3865302  2426.8765446   634.0300247 999999.999999
VL47 -6236.5041689  3891.9999622-76067.3680620 999999.999999
*  2018 10 04 00 23 20.00000000                             
PL47 -6344.2224643  2430.6205579   557.9241925 999999.999999
VL47 -5435.3183713  3595.7553231-76142.6930289 999999.999999
*  2018 10 04 00 23 30.00000000                             
PL47 -6349.2570931  2434.0675188   481.7478470 999999.999999
VL47 -4633.9111131  3297.9013062-76208.3931696 999999.999999
*  2018 10 04 00 23 40.00000000                             
PL47 -6353.4902474  2437.2158367   405.5106170 999999.999999
VL47 -3832.3864206  2998.4758870-76264.4607878 999999.999999
*  2018 10 04 00 23 50.00000000                             
PL47 -6356.9218616  2440.0639592   329.2221384 999999.999999
VL47 -3030.8485839  2697.5165189-76310.8894653 999999.999999
*  2018 10 04 00 24 00.00000000                             
PL47 -6359.5519748  2442.6103712   252.8920528 999999.999999
VL47 -2229.4016058  2395.0615133-76347.6740583 999999.999999
*  2018 10 04 00 24 10.00000000                             
PL47 -6361.3807297  2444.8535968   176.5300063 999999.999999
VL47 -1428.1491782  2091.1500429-76374.8106911 999999.999999
*  2018 10 04 00 24 20.00000000                             
PL47 -6362.4083727  2446.7921986   100.1456483 999999.999999
VL47  -627.1952505  1785.8206153-76392.2967479 999999.999999
*  2018 10 04 00 24 30.00000000                             
PL47 -6362.6352542  2448.4247786    23.7486301 999999.999999
VL47   173.3566989  1479.1129292-76400.1308648 999999.999999
*  2018 10 04 00 24 40.00000000                             
PL47 -6362.0618278  2449.7499781   -52.6513961 999999.999999
VL47   973.4029556  1171.0660028-76398.3129220 999999.999999
*  2018 10 04 00 24 50.00000000                             
PL47 -6360.6886513  2450.7664774  -129.0447787 999999.999999
VL47  1772.8401628   861.7196902-76386.8440374 999999.999999
*  2018 10 04 00 25 00.00000000                             
PL47 -6358.5163849  2451.4729979  -205.4218680 999999.999999
VL47  2571.5653298   551.1146787-76365.7265604 999999.999999
*  2018 10 04 00 25 10.00000000                             
PL47 -6355.5457923  2451.8683006  -281.7730168 999999.999999
VL47  3369.4752536   239.2909703-76334.9640664 999999.999999
*  2018 10 04 00 25 20.00000000                             
PL47 -6351.7777403  2451.9511873  -358.0885827 999999.999999
VL47  4166.4672393   -73.7102520-76294.5613538 999999.999999
*  2018 10 04 00 25 30.00000000                             
PL47 -6347.2131982  2451.7205010  -434.3589281 999999.999999
VL47  4962.4383780  -387.8484796-76244.5244486 999999.999999
*  2018 10 04 00 25 40.00000000                             
PL47 -6341.8532380  2451.1751251  -510.5744226 999999.999999
VL47  5757.2861338  -703.0823561-76184.8606263 999999.999999
*  2018 10 04 00 25 50.00000000                             
PL47 -6335.6990344  2450.3139852  -586.7254432 999999.999999
VL47  6550.9083594 -1019.3696957-76115.5784438 999999.999999
*  2018 10 04 00 26 00.00000000                             
PL47 -6328.7518639  2449.1360484  -662.8023766 999999.999999
VL47  7343.2028061 -1336.6688895-76036.6877599 999999.999999
*  2018 10 04 00 26 10.00000000                             
PL47 -6321.0131053  2447.6403242  -738.7956196 999999.999999
VL47  8134.0676478 -1654.9377131-75948.1997226 999999.999999
*  2018 10 04 00 26 20.00000000                             
PL47 -6312.4842390  2445.8258641  -814.6955811 999999.999999
VL47  8923.4015079 -1974.1333538-75850.1267275 999999.999999
*  2018 10 04 00 26 30.00000000                             
PL47 -6303.1668464  2443.6917626  -890.4926826 999999.999999
VL47  9711.1029799 -2294.2136312-75742.4823786 999999.999999
*  2018 10 04 00 26 40.00000000                             
PL47 -6293.0626108  2441.2371562  -966.1773603 999999.999999
VL47 10497.0711361 -2615.1356116-75625.2814814 999999.999999
*  2018 10 04 00 26 50.00000000                             
PL47 -6282.1733154  2438.4612254 -1041.7400654 999999.999999
VL47 11281.2055198 -2936.8555906-75498.5400670 999999.999999
*  2018 10 04 00 27 00.00000000                             
PL47 -6270.5008445  2435.3631934 -1117.1712660 999999.999999
VL47 12063.4055823 -3259.3305985-75362.2754232 999999.999999
*  2018 10 04 00 27 10.00000000                             
PL47 -6258.0471823  2431.9423272 -1192.4614480 999999.999999
VL47 12843.5714369 -3582.5165610-75216.5061063 999999.999999
*  2018 10 04 00 27 20.00000000                             
PL47 -6244.8144130  2428.1979377 -1267.6011166 999999.999999
VL47 13621.6031797 -3906.3701447-75061.2519315 999999.999999
*  2018 10 04 00 27 30.00000000                             
PL47 -6230.8047205  2424.1293790 -1342.5807973 999999.999999
VL47 14397.4014906 -4230.8472659-74896.5339556 999999.999999
*  2018 10 04 00 27 40.00000000                             
PL47 -6216.0203874  2419.7360503 -1417.3910373 999999.999999
VL47 15170.8676422 -4555.9030926-74722.3744665 999999.999999
*  2018 10 04 00 27 50.00000000                             
PL47 -6200.4637955  2415.0173947 -1492.0224068 999999.999999
VL47 15941.9029316 -4881.4935341-74538.7969827 999999.999999
*  2018 10 04 00 28 00.00000000                             
PL47 -6184.1374245  2409.9729001 -1566.4655002 999999.999999
VL47 16710.4094090 -5207.5734191-74345.8262572 999999.999999
*  2018 10 04 00 28 10.00000000                             
PL47 -6167.0438522  2404.6020995 -1640.7109369 999999.999999
VL47 17476.2891918 -5534.0983275-74143.4882782 999999.999999
*  2018 10 04 00 28 20.00000000                             
PL47 -6149.1857541  2398.9045701 -1714.7493634 999999.999999
VL47 18239.4450634 -5861.0231289-73931.8102616 999999.999999
*  2018 10 04 00 28 30.00000000                             
PL47 -6130.5659022  2392.8799352 -1788.5714536 999999.999999
VL47 18999.7804847 -6188.3020188-73710.8206368 999999.999999
*  2018 10 04 00 28 40.00000000                             
PL47 -6111.1871654  2386.5278631 -1862.1679106 999999.999999
VL47 19757.1990794 -6515.8898884-73480.5490283 999999.999999
*  2018 10 04 00 28 50.00000000                             
PL47 -6091.0525083  2379.8480676 -1935.5294679 999999.999999
VL47 20511.6051060 -6843.7411486-73241.0262397 999999.999999
*  2018 10 04 00 29 00.00000000                             
PL47 -6070.1649911  2372.8403083 -2008.6468900 999999.999999
VL47 21262.9034601 -7171.8097481-72992.2842379 999999.999999
*  2018 10 04 00 29 10.00000000                             
PL47 -6048.5277689  2365.5043908 -2081.5109743 999999.999999
VL47 22010.9992258 -7500.0503328-72734.3561419 999999.999999
EOF                                                         
